SNUGLITE                
1 43784U 18099AC  23264.88212825  .00006434  00000+0  50360-3 0  9999
2 43784  97.5423 323.9603 0009826 139.5319 220.6638 15.01330182262179
ITASAT 1                
1 43786U 18099AE  23264.89122421  .00005617  00000+0  45013-3 0  9995
2 43786  97.5607 324.8599 0018420 164.7914 195.3868 15.00388129262143
KAZSCISAT-1             
1 43787U 18099AF  23264.11989170  .00012543  00000+0  88256-3 0  9995
2 43787  97.5465 324.3259 0008624 153.2738 206.8935 15.05168818262190
EAGLET-I                
1 43790U 18099AJ  23264.89885115  .00004419  00000+0  36126-3 0  9990
2 43790  97.5626 325.2549 0013985 163.2887 196.8801 14.99786602261870
ESEO                    
1 43792U 18099AL  23265.09337277  .00002397  00000+0  20723-3 0  9995
2 43792  97.5584 323.6106 0013210 155.2617 204.9242 14.98044083261890
CSIM-FD                 
1 43793U 18099AM  23264.92957194  .00013661  00000+0  93395-3 0  9994
2 43793  97.5671 328.4426 0016322 154.4967 205.7069 15.06144870262131
ASTROCAST 0.1           
1 43798U 18099AS  23264.71011188  .00011175  00000+0  80175-3 0  9990
2 43798  97.5763 327.4418 0013229 133.3311 226.9020 15.04426601262270
JY1SAT (JO-97)          
1 43803U 18099AX  23264.61701862  .00006576  00000+0  50470-3 0  9995
2 43803  97.5629 324.7901 0013599 132.4788 227.7588 15.02036873262165
SUOMI-100               
1 43804U 18099AY  23265.10352461  .00007367  00000+0  56910-3 0  9992
2 43804  97.5720 325.0267 0018935 138.4045 221.8624 15.01677713262235
AL-FARABI 2             
1 43805U 18099AZ  23264.65810022  .00010634  00000+0  77692-3 0  9995
2 43805  97.5505 325.7200 0013216 132.8937 227.3401 15.03754795262249
CENTAURI-1              
1 43809U 18099BD  23264.89893814  .00005198  00000+0  41943-3 0  9994
2 43809  97.5586 324.6638 0018025 158.2796 201.9196 15.00158515261864
CHOMPTT                 
1 43855U 18104G   23265.00090262  .00035517  00000+0  72865-3 0  9997
2 43855  85.0235 100.0168 0009416 321.1947  38.8631 15.45833100265500
UWE-4                   
1 43880U 18111E   23264.96941735  .00007418  00000+0  54681-3 0  9992
2 43880  97.6210 168.6803 0017432 199.7904 160.2647 15.03479138256907
ZACUBE-2                
1 43907U 18111AH  23265.13523201  .00042022  00000+0  84094-3 0  9997
2 43907  97.1196 142.7413 0011283 209.5458 150.5156 15.46582022264109
MICRODRAGON             
1 43935U 19003D   23265.05400593  .00024872  00000+0  66021-3 0  9991
2 43935  97.1011 281.2601 0010848 331.9979  28.0682 15.38217825260306
FORMOSAT 7-4            
1 44350U 19036M   23264.83288920  .00008649  00000+0  48534-3 0  9995
2 44350  23.9987  83.4266 0000446  70.5858 289.4694 15.10867195233320
METEOR-M2 2             
1 44387U 19038A   23265.15017641  .00000120  00000+0  71886-4 0  9996
2 44387  98.7870 228.9053 0002056  49.4717 310.6640 14.23806787219100
VDNH-80                 
1 44392U 19038G   23265.03847720  .00035308  00000+0  10510-2 0  9999
2 44392  97.6807 249.7692 0011232 332.4795  27.5851 15.34570181233137
D-STAR ONE (LIGHTSAT)   
1 44393U 19038H   23264.93668016  .00037716  00000+0  10860-2 0  9990
2 44393  97.6807 249.8732 0010976 332.1699  27.8956 15.35604072233337
AMGU-1 (AMURSAT)        
1 44394U 19038J   23264.89711622  .00046726  00000+0  12373-2 0  9990
2 44394  97.6778 250.4009 0009727 332.9057  27.1679 15.38175559233373
DOT-1                   
1 44399U 19038P   23264.90538330  .00019763  00000+0  77297-3 0  9998
2 44399  97.6921 245.6075 0017533 345.5790  14.4944 15.25739996233017
SOKRAT                  
1 44404U 19038U   23264.93422079  .00044113  00000+0  11918-2 0  9994
2 44404  97.6796 249.8767 0010508 334.1869  25.8849 15.37560609233346
LUCKY-7                 
1 44406U 19038W   23264.93420159  .00020682  00000+0  77603-3 0  9992
2 44406  97.6895 246.4748 0016461 335.8381  24.2083 15.27126803233077
D-STAR ONE (EXOCONNECT) 
1 44410U 19038AA  23264.95215036  .00342208  00000+0  21525-2 0  9997
2 44410  97.6595 257.8409 0003346 148.2296 211.9171 15.75736842233906
NARSSCUBE-2             
1 44415U 19022E   23264.93744281  .00050942  00000+0  73747-3 0  9997
2 44415  51.6347  17.7621 0009430 305.7350  54.2763 15.55329022231332
DUCHIFAT-3              
1 44854U 19089C   23265.00378477  .00011748  00000+0  75261-3 0  9990
2 44854  36.9602 231.9389 0006302  19.4873 340.6111 15.07982815207440
OPS-SAT                 
1 44878U 19092F   23264.81031207  .00036057  00000+0  91129-3 0  9996
2 44878  97.4728  95.1456 0008368 142.3821 217.8012 15.39678434208636
FLORIPASAT-1            
1 44885U 19093G   23265.03001459  .00005688  00000+0  64573-3 0  9995
2 44885  97.8625 345.1458 0014685 120.7683 239.4981 14.86619180203330
BY70-2                  
1 45857U 20042B   23265.16082561  .00028960  00000+0  26660-2 0  9990
2 45857  97.9190 345.6485 0007773  55.2089 304.9861 14.94657191174004
SALSAT                  
1 46495U 20068K   23265.11816609  .00005954  00000+0  38256-3 0  9993
2 46495  97.7782 214.2492 0016333 143.9484 216.2849 15.08716246163689
NETSAT-4                
1 46504U 20068U   23265.10669355  .00008227  00000+0  52445-3 0  9999
2 46504  97.7695 211.9546 0010187 188.1105 171.9960 15.08950395163517
NETSAT-3                
1 46505U 20068V   23264.82153576  .00008245  00000+0  52925-3 0  9994
2 46505  97.7664 211.4327 0009107 198.6003 161.4894 15.08701164163472
NETSAT-1                
1 46506U 20068W   23265.08808675  .00006782  00000+0  44205-3 0  9997
2 46506  97.7680 211.5386 0007304 207.2856 152.7989 15.08219234163501
NETSAT-2                
1 46507U 20068X   23265.10925182  .00008256  00000+0  52765-3 0  9992
2 46507  97.7685 211.6750 0006242 210.4685 149.6181 15.08880348163463
UVSQ-SAT                
1 47438U 21006AB  23265.08358066  .00022468  00000+0  83063-3 0  9993
2 47438  97.3736 320.9550 0010661 100.9173 259.3266 15.27668377147425
SOMP2B                  
1 47445U 21006AJ  23265.12342285  .00022158  00000+0  84143-3 0  9998
2 47445  97.3702 320.0856 0010520 105.5089 254.7312 15.26784318147397
CAS-5A                  
1 54684U 22167C   23265.15583613  .00015595  00000+0  80090-3 0  9999
2 54684  97.5749  42.3038 0012672   4.3336 355.8004 15.16521866 43369
